[{"OBJECT_NAME":"GEOSCAN 4 (RS92S4)","OBJECT_ID":"2025-155S","EPOCH":"2026-03-09T21:50:07.724832","MEAN_MOTION":15.30369837,"ECCENTRICITY":0.00070968,"INCLINATION":97.4465,"RA_OF_ASC_NODE":37.7626,"ARG_OF_PERICENTER":154.7045,"MEAN_ANOMALY":205.4544,"EPHEMERIS_TYPE":0,"CLASSIFICATION_TYPE":"U","NORAD_CAT_ID":64892,"ELEMENT_SET_NO":999,"REV_AT_EPOCH":6562,"BSTAR":0.00068609503,"MEAN_MOTION_DOT":0.00020121,"MEAN_MOTION_DDOT":0},{"OBJECT_NAME":"STARLINK-34813","OBJECT_ID":"2025-243U","EPOCH":"2026-03-09T17:58:52.252896","MEAN_MOTION":15.30179137,"ECCENTRICITY":0.00010663,"INCLINATION":53.1603,"RA_OF_ASC_NODE":244.9251,"ARG_OF_PERICENTER":75.2464,"MEAN_ANOMALY":284.8655,"EPHEMERIS_TYPE":0,"CLASSIFICATION_TYPE":"U","NORAD_CAT_ID":66195,"ELEMENT_SET_NO":999,"REV_AT_EPOCH":2066,"BSTAR":0.0015327829,"MEAN_MOTION_DOT":0.00045285,"MEAN_MOTION_DDOT":0}]
